{"fetched_at":"2026-07-06T18:35:36.523Z","source":"https://celestrak.org/NORAD/elements/gp.php?NAME=HAWK&FORMAT=JSON","constellation":"hawkeye-360","records":[{"OBJECT_NAME":"HAWK-9B","OBJECT_ID":"2024-066J","EPOCH":"2026-07-05T23:49:32.515680","CLASSIFICATION_TYPE":"U","MEAN_MOTION":14.99196896,"ECCENTRICITY":0.0001968,"INCLINATION":45.6121,"RA_OF_ASC_NODE":180.9648,"ARG_OF_PERICENTER":126.4637,"MEAN_ANOMALY":233.6426,"EPHEMERIS_TYPE":0,"NORAD_CAT_ID":59450,"ELEMENT_SET_NO":999,"REV_AT_EPOCH":12265,"BSTAR":0.00015411035,"MEAN_MOTION_DOT":0.00001674,"MEAN_MOTION_DDOT":0},{"OBJECT_NAME":"HAWK-10A","OBJECT_ID":"2024-149CA","EPOCH":"2026-07-06T03:48:15.087744","CLASSIFICATION_TYPE":"U","MEAN_MOTION":14.96574196,"ECCENTRICITY":0.00038012,"INCLINATION":97.6891,"RA_OF_ASC_NODE":262.7439,"ARG_OF_PERICENTER":34.9966,"MEAN_ANOMALY":325.1505,"EPHEMERIS_TYPE":0,"NORAD_CAT_ID":60540,"ELEMENT_SET_NO":999,"REV_AT_EPOCH":10282,"BSTAR":0.00020231011,"MEAN_MOTION_DOT":0.00002245,"MEAN_MOTION_DDOT":0},{"OBJECT_NAME":"HAWK-10B","OBJECT_ID":"2024-149CF","EPOCH":"2026-07-06T03:48:03.041856","CLASSIFICATION_TYPE":"U","MEAN_MOTION":14.96574114,"ECCENTRICITY":0.00061618,"INCLINATION":97.6812,"RA_OF_ASC_NODE":262.0798,"ARG_OF_PERICENTER":44.6081,"MEAN_ANOMALY":315.5635,"EPHEMERIS_TYPE":0,"NORAD_CAT_ID":60545,"ELEMENT_SET_NO":999,"REV_AT_EPOCH":10282,"BSTAR":0.00020385449,"MEAN_MOTION_DOT":0.00002263,"MEAN_MOTION_DDOT":0},{"OBJECT_NAME":"HAWK-10C","OBJECT_ID":"2024-149DM","EPOCH":"2026-07-06T03:48:31.475232","CLASSIFICATION_TYPE":"U","MEAN_MOTION":14.9657417,"ECCENTRICITY":0.00033893,"INCLINATION":97.6731,"RA_OF_ASC_NODE":261.3996,"ARG_OF_PERICENTER":25.6775,"MEAN_ANOMALY":334.4614,"EPHEMERIS_TYPE":0,"NORAD_CAT_ID":60575,"ELEMENT_SET_NO":999,"REV_AT_EPOCH":10282,"BSTAR":0.00020295235,"MEAN_MOTION_DOT":0.00002253,"MEAN_MOTION_DDOT":0},{"OBJECT_NAME":"HAWK-11B","OBJECT_ID":"2024-247C","EPOCH":"2026-07-06T00:48:07.462944","CLASSIFICATION_TYPE":"U","MEAN_MOTION":15.30582153,"ECCENTRICITY":0.00042604,"INCLINATION":45.014,"RA_OF_ASC_NODE":186.413,"ARG_OF_PERICENTER":329.8882,"MEAN_ANOMALY":30.1757,"EPHEMERIS_TYPE":0,"NORAD_CAT_ID":62379,"ELEMENT_SET_NO":999,"REV_AT_EPOCH":8589,"BSTAR":0.00025731392,"MEAN_MOTION_DOT":0.00007457,"MEAN_MOTION_DDOT":0},{"OBJECT_NAME":"HAWK-11C","OBJECT_ID":"2024-247E","EPOCH":"2026-07-05T01:17:42.213984","CLASSIFICATION_TYPE":"U","MEAN_MOTION":15.30567145,"ECCENTRICITY":0.0005256,"INCLINATION":45.0025,"RA_OF_ASC_NODE":191.1245,"ARG_OF_PERICENTER":315.5074,"MEAN_ANOMALY":44.5388,"EPHEMERIS_TYPE":0,"NORAD_CAT_ID":62381,"ELEMENT_SET_NO":999,"REV_AT_EPOCH":8574,"BSTAR":0.00033567,"MEAN_MOTION_DOT":0.00009821,"MEAN_MOTION_DDOT":0},{"OBJECT_NAME":"HAWK-11A","OBJECT_ID":"2024-247F","EPOCH":"2026-07-06T00:47:34.758816","CLASSIFICATION_TYPE":"U","MEAN_MOTION":15.30580239,"ECCENTRICITY":0.00046189,"INCLINATION":44.9922,"RA_OF_ASC_NODE":185.0931,"ARG_OF_PERICENTER":319.9687,"MEAN_ANOMALY":40.0857,"EPHEMERIS_TYPE":0,"NORAD_CAT_ID":62382,"ELEMENT_SET_NO":999,"REV_AT_EPOCH":8589,"BSTAR":0.00024808859,"MEAN_MOTION_DOT":0.00007178,"MEAN_MOTION_DDOT":0},{"OBJECT_NAME":"HAWK-12C","OBJECT_ID":"2025-138A","EPOCH":"2026-07-05T22:58:49.858464","CLASSIFICATION_TYPE":"U","MEAN_MOTION":15.18355457,"ECCENTRICITY":0.00157766,"INCLINATION":97.4348,"RA_OF_ASC_NODE":189.0834,"ARG_OF_PERICENTER":80.1927,"MEAN_ANOMALY":280.1088,"EPHEMERIS_TYPE":0,"NORAD_CAT_ID":64621,"ELEMENT_SET_NO":999,"REV_AT_EPOCH":5671,"BSTAR":0.00026109578,"MEAN_MOTION_DOT":0.00005312,"MEAN_MOTION_DDOT":0},{"OBJECT_NAME":"HAWK-12B","OBJECT_ID":"2025-138B","EPOCH":"2026-07-05T22:59:04.810848","CLASSIFICATION_TYPE":"U","MEAN_MOTION":15.18355198,"ECCENTRICITY":0.00147037,"INCLINATION":97.4469,"RA_OF_ASC_NODE":189.7624,"ARG_OF_PERICENTER":75.9929,"MEAN_ANOMALY":284.2939,"EPHEMERIS_TYPE":0,"NORAD_CAT_ID":64622,"ELEMENT_SET_NO":999,"REV_AT_EPOCH":5671,"BSTAR":0.00026303899,"MEAN_MOTION_DOT":0.0000535,"MEAN_MOTION_DDOT":0},{"OBJECT_NAME":"HAWK-12A","OBJECT_ID":"2025-138C","EPOCH":"2026-07-05T22:58:31.336032","CLASSIFICATION_TYPE":"U","MEAN_MOTION":15.18357238,"ECCENTRICITY":0.00156219,"INCLINATION":97.4412,"RA_OF_ASC_NODE":189.4216,"ARG_OF_PERICENTER":75.4391,"MEAN_ANOMALY":284.8574,"EPHEMERIS_TYPE":0,"NORAD_CAT_ID":64623,"ELEMENT_SET_NO":999,"REV_AT_EPOCH":5671,"BSTAR":0.00026492098,"MEAN_MOTION_DOT":0.00005391,"MEAN_MOTION_DDOT":0},{"OBJECT_NAME":"HAWK-13A","OBJECT_ID":"2026-004AF","EPOCH":"2026-07-05T23:11:18.768480","CLASSIFICATION_TYPE":"U","MEAN_MOTION":15.19307005,"ECCENTRICITY":0.00036209,"INCLINATION":97.4444,"RA_OF_ASC_NODE":185.569,"ARG_OF_PERICENTER":264.634,"MEAN_ANOMALY":95.4481,"EPHEMERIS_TYPE":0,"NORAD_CAT_ID":67392,"ELEMENT_SET_NO":999,"REV_AT_EPOCH":2661,"BSTAR":0.00024260597,"MEAN_MOTION_DOT":0.00005054,"MEAN_MOTION_DDOT":0},{"OBJECT_NAME":"HAWK-13C","OBJECT_ID":"2026-004AG","EPOCH":"2026-07-05T23:11:05.945856","CLASSIFICATION_TYPE":"U","MEAN_MOTION":15.19307079,"ECCENTRICITY":0.00035053,"INCLINATION":97.4589,"RA_OF_ASC_NODE":185.9755,"ARG_OF_PERICENTER":269.1987,"MEAN_ANOMALY":90.8846,"EPHEMERIS_TYPE":0,"NORAD_CAT_ID":67393,"ELEMENT_SET_NO":999,"REV_AT_EPOCH":2661,"BSTAR":0.00023961172,"MEAN_MOTION_DOT":0.00004991,"MEAN_MOTION_DDOT":0},{"OBJECT_NAME":"HAWK-13B","OBJECT_ID":"2026-004AK","EPOCH":"2026-07-05T23:10:57.838944","CLASSIFICATION_TYPE":"U","MEAN_MOTION":15.19306649,"ECCENTRICITY":0.00047836,"INCLINATION":97.4529,"RA_OF_ASC_NODE":185.8058,"ARG_OF_PERICENTER":267.2998,"MEAN_ANOMALY":92.7689,"EPHEMERIS_TYPE":0,"NORAD_CAT_ID":67396,"ELEMENT_SET_NO":999,"REV_AT_EPOCH":2661,"BSTAR":0.00024242812,"MEAN_MOTION_DOT":0.00005051,"MEAN_MOTION_DDOT":0},{"OBJECT_NAME":"HAWK-14B","OBJECT_ID":"2026-067W","EPOCH":"2026-07-06T03:07:25.223520","CLASSIFICATION_TYPE":"U","MEAN_MOTION":15.18382477,"ECCENTRICITY":0.00025493,"INCLINATION":97.4557,"RA_OF_ASC_NODE":145.3085,"ARG_OF_PERICENTER":26.1036,"MEAN_ANOMALY":334.0326,"EPHEMERIS_TYPE":0,"NORAD_CAT_ID":68436,"ELEMENT_SET_NO":999,"REV_AT_EPOCH":1481,"BSTAR":0.00021283897,"MEAN_MOTION_DOT":0.00004308,"MEAN_MOTION_DDOT":0},{"OBJECT_NAME":"HAWK-14C","OBJECT_ID":"2026-067AB","EPOCH":"2026-07-06T03:07:34.439808","CLASSIFICATION_TYPE":"U","MEAN_MOTION":15.1838467,"ECCENTRICITY":0.00035187,"INCLINATION":97.4494,"RA_OF_ASC_NODE":145.1961,"ARG_OF_PERICENTER":45.6041,"MEAN_ANOMALY":314.548,"EPHEMERIS_TYPE":0,"NORAD_CAT_ID":68441,"ELEMENT_SET_NO":999,"REV_AT_EPOCH":1481,"BSTAR":0.00021662738,"MEAN_MOTION_DOT":0.00004386,"MEAN_MOTION_DDOT":0},{"OBJECT_NAME":"HAWK-14A","OBJECT_ID":"2026-067AJ","EPOCH":"2026-07-05T08:08:57.877728","CLASSIFICATION_TYPE":"U","MEAN_MOTION":15.18376006,"ECCENTRICITY":0.0004305,"INCLINATION":97.462,"RA_OF_ASC_NODE":144.6475,"ARG_OF_PERICENTER":40.9777,"MEAN_ANOMALY":319.1779,"EPHEMERIS_TYPE":0,"NORAD_CAT_ID":68448,"ELEMENT_SET_NO":999,"REV_AT_EPOCH":1469,"BSTAR":0.00032064,"MEAN_MOTION_DOT":0.00006525,"MEAN_MOTION_DDOT":0}]}
